STARLINK-3912           
1 52502U 22049BD  26068.32092553 -.00001533  00000+0 -78262-4 0  9994
2 52502  53.2171  40.8031 0001318  87.8622 272.2521 15.08837630212475
LEMUR-2-AHMED-ASRAR     
1 60576U 24149DN  26068.73265438  .00013045  00000+0  79773-3 0  9992
2 60576  97.7021 152.9847 0001633  18.5035 341.6253 15.10376432 85541
